STARLINK-37153          
1 68664U 26077C   26112.61364161  .00108287  00000+0  71589-3 0  9990
2 68664  97.2841 343.6567 0001013  77.8953 282.2426 15.75248746  1827
